ONEWEB-0068             
1 45446U 20020Y   26168.61111279 -.00000465  00000+0 -13482-2 0  9994
2 45446  87.8894  20.9792 0001731  79.6350 280.4973 13.11414695302654
ONEWEB-0046             
1 45447U 20020Z   26168.60277291 -.00000202  00000+0 -60517-3 0  9992
2 45447  87.8886  20.9870 0001975  78.8977 281.2373 13.11413938302662
ONEWEB-0063             
1 45448U 20020AA  26168.63172720 -.00000352  00000+0 -10296-2 0  9991
2 45448  87.8896  20.9801 0002152  85.1706 274.9668 13.11419007302756
ONEWEB-0019             
1 45449U 20020AB  26168.51787157  .00000132  00000+0  33738-3 0  9996
2 45449  87.8888  20.9891 0001715  89.8570 270.2754 13.11414347302589
ONEWEB-0094             
1 45450U 20020AC  26168.50667854 -.00000018  00000+0 -80264-4 0  9990
2 45450  87.9140   5.7855 0001633  86.5188 273.6130 13.17647408306358
ONEWEB-0087             
1 45451U 20020AD  26168.64163704  .00000282  00000+0  76122-3 0  9999
2 45451  87.8905  20.9522 0001669  76.9476 283.1838 13.11419444302649
ONEWEB-0082             
1 45452U 20020AE  26168.63825226  .00000100  00000+0  24699-3 0  9994
2 45452  87.8896  20.9694 0001841  70.3220 289.8106 13.11420095302731
ONEWEB-0050             
1 45453U 20020AF  26168.61247441  .00001798  00000+0  18264-3 0  9995
2 45453  88.9297 233.1531 0003090  25.3062 334.8318 14.90382413340444
ONEWEB-0034             
1 45454U 20020AG  26168.67582294  .00000088  00000+0  21277-3 0  9999
2 45454  87.8892  20.9714 0001838  85.3404 274.7934 13.11413657302657
ONEWEB-0060             
1 45455U 20020AH  26168.63074385 -.00000382  00000+0 -11144-2 0  9993
2 45455  87.8887  20.9784 0001256  52.6879 307.4363 13.11417788302600
ONEWEB-0086             
1 45456U 20020AJ  26168.60941882 -.00000441  00000+0 -12789-2 0  9998
2 45456  87.8893  20.9778 0001026  85.1071 275.0174 13.11414602302669
ONEWEB-0088             
1 45457U 20020AK  26168.66381806  .00000442  00000+0  12099-2 0  9992
2 45457  87.8903  20.9400 0002166  79.4668 280.6704 13.11416727302603
ONEWEB-0102             
1 47258U 20100A   26168.51514437 -.00000071  00000+0 -23356-3 0  9993
2 47258  87.8939 350.6099 0001609  98.2237 261.9074 13.12440815264775
ONEWEB-0109             
1 47259U 20100B   26168.52361283 -.00000323  00000+0 -93231-3 0  9993
2 47259  87.8948 350.5914 0001826  96.0843 264.0494 13.12440760264602
ONEWEB-0110             
1 47260U 20100C   26168.55071656 -.00000030  00000+0 -11942-3 0  9994
2 47260  87.8949 350.5707 0001567  90.1700 269.9608 13.12445343264775
ONEWEB-0111             
1 47261U 20100D   26168.50498282  .00000273  00000+0  72379-3 0  9996
2 47261  87.8949 350.5982 0001756  88.3867 271.7463 13.12440759264602
ONEWEB-0114             
1 47262U 20100E   26168.53547878 -.00001488  00000+0 -41737-2 0  9990
2 47262  87.8953 350.5903 0002151  95.4520 264.6854 13.12433294264562
ONEWEB-0117             
1 47263U 20100F   26168.52700243 -.00000359  00000+0 -10329-2 0  9996
2 47263  87.8946 350.5820 0001776  91.1062 269.0270 13.12442818264573
ONEWEB-0118             
1 47264U 20100G   26168.48465534  .00000257  00000+0  67987-3 0  9991
2 47264  87.8946 350.5935 0002144  91.6289 268.5086 13.12443530264769
ONEWEB-0119             
1 47265U 20100H   26168.51006840  .00000114  00000+0  28231-3 0  9998
2 47265  87.8938 350.6050 0001811  91.2257 268.9079 13.12442515264747
ONEWEB-0120             
1 47266U 20100J   26168.53391634 -.00000356  00000+0 -10254-2 0  9994
2 47266  87.8938 350.6014 0001879  96.9461 263.1881 13.12444222264779
ONEWEB-0121             
1 47267U 20100K   26168.52191849 -.00000204  00000+0 -60169-3 0  9993
2 47267  87.8948 350.5898 0001698  81.3223 278.8098 13.12442877264680
ONEWEB-0122             
1 47268U 20100L   26168.51600250 -.00000058  00000+0 -19722-3 0  9990
2 47268  87.8950 350.5955 0001720  95.8647 264.2678 13.12441865264593
ONEWEB-0123             
1 47269U 20100M   26168.51175751  .00000072  00000+0  16517-3 0  9997
2 47269  87.8937 350.6037 0001917  90.5942 269.5406 13.12443355264738
ONEWEB-0124             
1 47270U 20100N   26168.50159508  .00000358  00000+0  96063-3 0  9991
2 47270  87.8937 350.6088 0001776  87.6221 272.5111 13.12443705264619
ONEWEB-0125             
1 47271U 20100P   26168.55579701  .00000071  00000+0  16110-3 0  9995
2 47271  87.8948 350.5815 0001959  82.2658 277.8693 13.12445467264684
ONEWEB-0126             
1 47272U 20100Q   26168.50005112  .00000387  00000+0  10397-2 0  9991
2 47272  87.8942 350.6081 0001883  94.8612 265.2731 13.12442602264749
ONEWEB-0127             
1 47273U 20100R   26168.54224370 -.00000467  00000+0 -13328-2 0  9993
2 47273  87.8938 350.5986 0001933  98.5961 261.5386 13.12443469264772
ONEWEB-0128             
1 47274U 20100S   26168.48803991  .00000365  00000+0  97935-3 0  9991
2 47274  87.8936 350.6232 0001502  89.0857 271.0443 13.12444070264787
ONEWEB-0129             
1 47275U 20100T   26168.54394480 -.00000261  00000+0 -76052-3 0  9991
2 47275  87.8948 350.5860 0002442 117.0623 243.0755 13.12444306264725
